2023-104A               
1 57424U 23104A   26065.78279804  .00015492  00000+0  48200-3 0  9993
2 57424  97.2792 135.5625 0009333 122.1915 238.0234 15.33350758146346
STARLINK-33757          
1 63720U 25087Z   26068.65221099  .00084123  00000+0  28145-2 0  9995
2 63720  53.1586 219.7392 0001822 109.8820 250.2378 15.30267191 49197
